[Satellite]
VERSION=1.1
NAME=UNIBRITE
NICKNAME=UNIBRITE
TLE1=1 39092U 13009G   17186.23545729  .00000012  00000-0  19694-4 0  9992
TLE2=2 39092  98.5500  30.5732 0008271 245.2374 114.7951 14.34906417228051
